dest_type,lat,lon,label,address,1,2,3,4,5,nearest_priority_road,dist_to_priority_road,suburb_resupply_day,comments
supermarket,-41.30427856,174.7941162,Four Square Hataitai,"1 Moxham Ave, Hataitai, Wellington, 6021, NZL",3,3,1,1,1,1,200,10,Close to a priority 2 road. Road vulnerability mapping indicates that access via Constable St/Wellington Rd should be available by day 15. 
supermarket,-41.11027207,175.082087,Four Square Totara Park,"1 Turon Cres, Totara Park, Upper Hutt, 5018, NZL",3,3,3,2,1,3,200,10/90,Close to a priority 3 road. Hutt Valley access is weather dependant until 'day 90'.
supermarket,-41.2900718,174.8972291,Four Square Eastbourne,"10 Oroua St, Eastbourne, Lower Hutt, 5013, NZL",3,3,3,3,1,2,2000,90,
supermarket,-41.115265,175.1022182,Four Square Hutt,"103 ARO STREET, EBDENTOWN, UPPER HUTT",3,2,2,2,1,1,300,10/90,
supermarket,-41.08049745,175.4588409,Fresh Choice Greytown,"12 Hastwell St, Greytown, 5712, NZL",3,3,3,1,1,1,50,21,
supermarket,-41.1320795,174.8413607,Pak'N Save Porirua,"12 Parumoana St, Porirua City Centre, Porirua, 5022, NZL",3,1,1,1,1,1,200,7,Road vulnerability mapping indicates that access to the prioity 1 road should be good. 
supermarket,-41.254398,174.7661332,Countdown Churchill Drive,"Churchill Dr & Silverstream Rd, Crofton Downs, Wellington, 6035, NZL",3,1,1,1,1,1,0,7,Close to a priority 1 road.
supermarket,-40.90572476,174.9972301,Four Square Kapiti,"128 Kapiti Rd, Paraparaumu, 5032, NZL",3,1,1,1,1,1,100,7,Close to a priority 1 road.
supermarket,-41.21437366,174.9224917,Four Square Waterloo,"13 Hardy St, Waterloo, Lower Hutt, 5011, NZL",3,3,2,2,1,1,200,10/90,Close to a priority 1 road. Road vulnerability mapping indicates that road access to the priority 1 road should be good. 
supermarket,-41.1083702,174.8383205,Four Square Titahi Bay,"13 Whitehouse Rd, Titahi Bay, Porirua, 5022, NZL",3,1,1,1,1,2,0,7,Close to a priority 2 road.
supermarket,-41.12309062,175.0715947,Countdown Upper Hutt,"19 Queen St, Upper Hutt, 5018, NZL",3,2,2,2,1,1,300,10/90,Close to a priority 1 road. Road vulnerability mapping indicates that road access to the priority 1 road should be good. 
supermarket,-41.28238293,174.7458951,Four Square Karori,"147 Karori Rd, Karori, Wellington, 6012, NZL",3,3,1,1,1,3,0,13,Close to a priority 3 road.
supermarket,-40.75302713,175.1403444,New World Otaki,"163 Main St, Otaki, 5512, NZL",3,1,1,1,1,2,0,7,Close to priority 2 road.
supermarket,-40.90482785,174.9961658,New World Kapiti,"159 Kapiti Rd, Paraparaumu, 5032, NZL",3,1,1,1,1,1,100,7,Close to a priority 1 road.
supermarket,-40.89372911,174.9809878,Four Square Thriftway,"16 Seaview Rd, Paraparaumu Beach, Paraparaumu, 5032, NZL",3,1,1,1,1,2,300,7,Close to a priority 2 road. Road vulnerability mapping indicates that road access to the priority 2 road should be good. 
supermarket,-41.30761432,174.7777352,Countdown Newtown,"176 Adelaide Rd, Newtown, Wellington, 6021, NZL",3,3,1,1,1,1,100,14,Close to a priority 1 road.
supermarket,-41.1390747,174.8500709,Four Square Eastside Foodmarket,"18 Mungavin Ave, Ranui, Porirua, 5024, NZL",3,1,1,1,1,1,0,7,Close to a priority 1 road.
supermarket,-41.17974777,174.9593396,Four Square Taita,"18 Taine St, Taita, Lower Hutt, 5011, NZL",3,2,2,2,1,1,100,10/90,Close to a priority 1 road.
supermarket,-41.3144754,174.7801022,New World Newtown,"195 Riddiford St, Newtown, Wellington, 6021, NZL",3,3,1,1,1,1,100,14,Close to a priority 1 road.
supermarket,-41.27925336,174.7788568,New World Railway Metro,"Bunny St, Pipitea, Wellington, 6011, NZL",3,3,1,1,1,1,100,14,Close to a priority 1 road.
supermarket,-40.96210316,175.6246986,Four Square Solway,"218 High St, Solway, Masterton, 5810, NZL",3,3,3,1,1,1,0,21,
supermarket,-41.22350928,174.8236151,New World Newlands,"227 Newlands Rd, Newlands, Wellington, 6037, NZL",3,3,3,1,1,3,0,7,Close to a priority 3 road.
supermarket,-41.28447021,174.7382412,Countdown Karori,"236 Karori Rd, Karori, Wellington, 6012, NZL",3,3,1,1,1,3,0,13,Close to a priority 3 road.
supermarket,-41.28447021,174.7382412,New World Karori,"236 Karori Rd, Karori, Wellington, 6012, NZL",3,3,1,1,1,3,0,13,Close to a priority 3 road.
supermarket,-41.24744591,174.7916963,New World Khandallah,"26 Ganges Rd, Khandallah, Wellington, 6035, NZL",3,1,1,1,1,1,300,7,Close to a priority 1 road. Road vulnerability mapping indicates that road access to the priority 1 road should be good. 
supermarket,-41.20798018,174.9053259,Countdown Lower Hutt,"261 High St, Hutt Central, Lower Hutt, 5010, NZL",3,3,3,2,1,2,300,10/90,Close to a priority 2 road. Hutt Valley access is weather dependent until 'day 90'.
supermarket,-41.21957479,175.4580233,Four Square Jellicoe Street,"27 Jellicoe St, Martinborough, 5711, NZL",3,3,3,1,1,,,,
supermarket,-40.9521996,175.6579909,Countdown Masterton,"271 Queen St, Masterton, 5810, NZL",3,3,3,1,1,1,200,21,
supermarket,-41.29296588,174.7841214,New World Wellington City,"279 Wakefield St, Te Aro, Wellington, 6011, NZL",3,3,1,1,1,1,0,14,Close to a priority 1 road.
supermarket,-40.86121254,175.0246524,Four Square Waikanae Beach,"28 Tutere St, Waikanae Beach, Waikanae, 5036, NZL",3,3,1,1,1,2,500,7,"Although distant from a priority 2 route, road vulnerability mapping shows that one lane should be available on the priority 2 route. Assuming the road damage to be similar on the local roads, assume that access is possible by 'day 15'."
supermarket,-41.14842839,175.012606,New World Silverstream,"28 Whitemans Rd, Silverstream, Upper Hutt, 5019, NZL",3,3,2,2,1,2,50,10/90,Close to a priority 2 road. Hutt Valley access is weather dependant until 'day 90'.
supermarket,-41.284386,174.7753799,Countdown Cable Car Lane,"284 Lambton Quay, Wellington Central, Wellington, 6011, NZL",3,3,3,3,1,1,150,10,"Although close to a Priority 1 road, this supermarket is located within an area of multi-storey buildings. This lowers the likelihood of unimpeded access post-earthquake event."
supermarket,-41.18562436,174.8274002,Countdown Tawa,"3 Main Rd, Tawa, Wellington, 5028, NZL",3,1,1,1,1,1,100,7,Close to a priority 1 road.
supermarket,-41.12107485,174.8672412,Countdown Aotea,"3 Whitford Brown Ave, Ascot Park, Porirua, 5024, NZL",3,1,1,1,1,2,50,7,Close to a priority 2 road.  
supermarket,-41.19876541,174.9473569,Four Square Naenae,"30 Hillary Ct, Naenae, Lower Hutt, 5011, NZL",3,3,3,2,1,3,500,10/90,"Road vulnerability mapping shows roads in the area are likely to be less impacted, so once access to the priority 3 road is achieved, access to the supermarket is likely to be relatively soon after. Hutt Valley access is weather dependent until 'day 90'."
supermarket,-40.93643201,174.9773853,Four Square Raumati South,"30 Poplar Ave, Raumati South, Paraparaumu, 5032, NZL",3,1,1,1,1,1,1000,7,Road vulnerability mapping shows single lane access to a priority 1 road. 
supermarket,-41.29637075,174.7705786,Four Square Shalimar,"308 Willis St, Aro Valley, Wellington, 6011, NZL",3,3,1,1,1,1,0,10,Close to a priority 1 road.
supermarket,-41.20978254,174.9082628,Countdown Queensgate,"35 Bloomfield Ter, Hutt Central, Lower Hutt, 5010, NZL",3,3,2,2,1,2,0,10/90,Close to a priority 2 road. Hutt Valley access is weather dependent until 'day 90'.
supermarket,-41.32296859,174.831122,Four Square Seatoun Discount,"35 Falkirk Ave, Seatoun, Wellington, 6022, NZL",3,3,3,1,1,3,0,14,Close to a priority 3 road. 
supermarket,-41.18600076,174.9284851,Four Square Kelson,"35 Major Dr, Kelson, Lower Hutt, 5010, NZL",3,3,3,3,1,1,600,90/90,
supermarket,-41.16949071,174.8267628,New World Tawa,"37 Oxford St, Tawa, Wellington, 5028, NZL",3,1,1,1,1,2,100,7,Adjacent to priority 2 road. 
supermarket,-41.27426298,174.7789913,New World Thorndon,"41 Murphy St, Thorndon, Wellington, 6011, NZL",3,3,1,1,1,1,100,10,Close to priority 1 road.
supermarket,-40.75247032,175.1389769,Four Square Otaki,"42 Main St, Otaki, 5512, NZL",3,1,1,1,1,2,0,7,Close to priority 2 road.
supermarket,-41.22338835,174.871908,Countdown Petone,"45 Jackson St, Petone, Lower Hutt, 5012, NZL",3,3,3,2,1,2,100,21/90,Close to priority 2 road. Hutt Valley access is weather dependent until 'day 90'.
supermarket,-41.31945678,174.7945201,Countdown Kilbirnie,"47 Bay Rd, Kilbirnie, Wellington, 6022, NZL",3,3,1,1,1,1,200,14,Close to priority 2 road. Road vulnerability mapping indicates that road access from priority road to supermarket should be good. 
supermarket,-41.20907785,174.9077917,New World Hutt City,"47 Waterloo Rd, Hutt Central, Lower Hutt, 5010, NZL",3,3,2,2,1,2,100,10/90,Close to a priority 2 road. Hutt Valley access is weather dependent until 'day 90'.
supermarket,-41.31574314,174.8148171,New World Miramar,"48 Miramar Ave, Miramar, Wellington, 6022, NZL",3,3,3,1,1,3,200,14,Close to a priority 3 road. 
supermarket,-40.91925067,174.9814331,Four Square Raumati Village,"5 Margaret Rd, Raumati Beach, Paraparaumu, 5032, NZL",3,1,1,1,1,3,0,7,Road vulnerability mapping shows single lane access to a priority 1 road. 
supermarket,-40.87501384,175.0652452,New World Waikanae,"5 Parata St, Waikanae, 5036, NZL",3,1,1,1,1,1,0,7,Close to a priority 1 road.
supermarket,-41.32452815,174.8206524,Four Square Strathmore,"502 Broadway, Strathmore Park, Wellington, 6022, NZL",3,3,3,1,1,3,0,14,Close to a priority 3 road. 
supermarket,-41.22368027,174.8073224,Countdown Johnsonville,"57 Johnsonville Rd, Johnsonville, Wellington, 6037, NZL",3,1,1,1,1,1,300,7,Close to a priority 1 road. Road vulnerability mapping indicates that road access to the priority 1 road should be good. 
supermarket,-41.33477954,174.7728274,New World Island Bay,"6 Medway St, Island Bay, Wellington, 6023, NZL",3,3,3,1,1,3,50,10,Close to a priority 3 road. 
supermarket,-41.02591262,175.5265531,New World Carterton,"60 High St S, Carterton, 5713, NZL",3,3,3,1,1,1,0,21,
supermarket,-41.10814189,174.8433226,Four Square Morere,"64A Morere St, Titahi Bay, Porirua, 5022, NZL",3,1,1,1,1,2,200,7,Road vulnerability mapping indicates that access to the prioity 2 road should be good. 
supermarket,-41.20270238,174.8086258,New World Churton Park,"69 Lakewood Ave, Churton Park, Wellington, 6037, NZL",3,3,1,1,1,1,1000,7,"1km from a priority road, so assume that it will take additional time to recover access to the priority road."
supermarket,-40.75313592,175.1406543,Countdown Otaki,"69 Mill Rd, Otaki, 5512, NZL",3,1,1,1,1,2,0,7,Close to priority 2 road.
supermarket,-41.30750934,174.7780027,Four Square Newtown,"7 Riddiford St, Newtown, Wellington, 6021, NZL",3,3,1,1,1,1,0,14,Close to priority 1 road.
supermarket,-41.20732835,174.9513171,Four Square Seddon Street,"70 Seddon St, Naenae, Lower Hutt, 5011, NZL",3,3,3,2,1,3,500,10/90,"Road vulnerability mapping shows roads in the area are likely to be less impacted, so once access to the priority 3 road is achieved, access to the supermarket is likely to be relatively soon after. Hutt Valley access is weather dependent until 'day 90'."
supermarket,-41.28798687,174.7752842,New World Metro,"70 Willis St, Wellington Central, Wellington, 6011, NZL",3,3,3,3,1,1,400,10,"Although close to a Priority 1 road, this supermarket is located within an area of multi-storey buildings. This lowers the likelihood of unimpeded access post-earthquake event."
supermarket,-41.3182391,174.7965327,Pak'N Save Kilbirnie,"78 Rongotai Rd, Kilbirnie, Wellington, 6022, NZL",3,3,1,1,1,1,100,14,Close to a priority 1 road.
supermarket,-41.13435993,174.8418619,Countdown Porirua,"8 Lyttelton Ave, Porirua City Centre, Porirua, 5022, NZL",3,1,1,1,1,1,200,7,Road vulnerability mapping indicates that access to the prioity 1 road should be good. 
supermarket,-41.0940575,174.8689638,New World Paremata,"93-97 Mana Espl, Paremata, Porirua, 5026, NZL",3,1,1,1,1,1,100,7,Close to priority 1 road.
supermarket,-41.28893455,174.761976,Four Square Kelburn,"97A Upland Rd, Kelburn, Wellington, 6012, NZL",3,3,3,1,1,3,0,10,Close to priority 3 road.
supermarket,-40.94819023,175.6664326,New World Masterton,"2 Dixon St, Masterton, 5810, NZL",3,3,3,1,1,1,200,21,
supermarket,-41.2239469,174.8739783,Pak'N Save Petone,"136 Jackson St, Petone, Lower Hutt, 5012, NZL",3,3,3,2,1,2,100,21/90,Close to priority 2 road. Hutt Valley access is weather dependent until 'day 90'.
supermarket,-41.17463451,174.9811912,New World Stokes Valley,"14 Evans St, Stokes Valley, Lower Hutt, 5019, NZL",3,3,2,2,1,2,0,10/90,Close to priority 2 road. Hutt Valley access is weather dependent until 'day 90'.
supermarket,-40.9575811,175.6491921,Pak'N Save Masterton,"432 Queen St, Masterton, 5810, NZL",3,3,3,1,1,1,100,21,
supermarket,-40.92318801,174.9918185,Countdown Paraparaumu,"Kapiti Expy, Paraparaumu, 5032, NZL",3,1,1,1,1,1,100,7,Close to priority 1 road.
fuel_station,-40.76066796,175.1574728,BP Connect Otaki,250 Main Rd. Otaki,3,3,3,3,1,,,,
fuel_station,-40.907441,174.9991717,BP Connect Kapiti,"108 Kapiti Road, Kapiti",3,3,3,3,1,,,,
fuel_station,-40.91557903,175.0068257,BP Connect Paraparaumu,"Amohia Street, Paraparaumu",3,2,2,1,1,1,0,7,"Priority fuel station. Fuel only available while stocks allow. No generator on-site, so fuel commences from when generator can be installed. "
fuel_station,-40.906587,174.997453,Z Kapiti Road,"Cnr Kapiti Rd and Milne Dr, Paraparaumu",3,3,3,3,1,,,,
fuel_station,-40.76255494,175.154828,Mobil Otaki,"187 - 191 Main Highway, Otaki",3,3,3,3,1,,,,
fuel_station,-40.87559078,175.0662102,New World Waikanae Fuel,"84-98 Main Rd, Waikanae",3,3,3,3,1,,,,
fuel_station,-40.917764,175.001587,Pak n Save Kapiti Fuel,"Rimu Rd, Paraparaumu",3,3,3,3,1,,,,
fuel_station,-40.87955,175.064106,Bohanna Motors (Mobil),"24 Main Road, Waikanae",3,3,3,3,1,,,,
fuel_station,-40.901856,174.992258,Caltex Kapiti,"217 Kapiti Rd, Paraparaumu",3,3,3,3,1,,,,
fuel_station,-40.90068,174.984378,Z Paraparaumu Airport,"60 Toru Rd, Paraparaumu",3,3,3,3,1,,,,
fuel_station,-40.915327,175.007908,Mobil Kapiti,"Cnr Amohia St and Main Highway, Paraparaumu",3,3,3,3,1,,,,
fuel_station,-41.09604388,174.8689079,BP Connect Mana,"71 Mana Esplanade, Mana",3,3,3,3,1,,,,
fuel_station,-41.076464,174.873095,Z Plimmerton Truck Stop,SH1 Plimmerton,3,2,2,1,1,1,0,7,"Priority fuel station. Fuel only available while stocks allow. No generator on-site, so fuel commences from when generator can be installed."
fuel_station,-41.091552,174.867663,Z Mana,"143 Mana Esplanade, Mana",3,3,3,3,1,,,,
fuel_station,-41.13786615,174.8412561,BP Connect Porirua,Walton Leigh & Titahi Bay Rd. Porirua,3,2,2,1,1,1,0,7,"Priority fuel station. Fuel only available while stocks allow.No generator on-site, so fuel commences from when generator can be installed. "
fuel_station,-41.13167154,174.840121,Porirua COCO OPT,Cnr Parumoana & Norrie St. Porirua,3,3,3,3,1,,,,
fuel_station,-41.1330304,174.8421612,Caltex Porirua,"4 Parumoana St, Porirua",3,3,3,3,1,,,,
fuel_station,-41.13970907,174.8419015,Mobil Porirua,"5 Kenepuru Drive, Porirua ",3,3,3,3,1,,,,
fuel_station,-41.14080104,174.8645987,Mobil Cannons Creek,"Cnr Mungavin Avenue and Champion Street, Porirua",3,3,3,3,1,,,,
fuel_station,-41.10614292,174.8689881,Mobil Paremata,"Main Highway, Paremata",3,3,3,3,1,,,,
fuel_station,-41.137973,174.847673,Z Mungavin Avenue,"Mungavin Avenue, Porirua",2,2,2,1,1,1,0,7,Priority fuel station. Fuel only available while stocks allow. Generator installed.
fuel_station,-41.105329,174.916687,Challenge Pauatahanui,"9 Paikakariki Hill Rd, Porirua",3,3,3,3,1,,,,
fuel_station,-41.17572648,174.8254888,BP Connect Tawa,98-100 Main Rd Tawa,3,3,3,3,1,,,,
fuel_station,-41.184054,174.825658,Z Tawa,"Main Road, Tawa",3,2,2,1,1,1,0,7,"Priority fuel station. Fuel only available while stocks allow. No generator on-site, so fuel commences from when generator can be installed.. "
fuel_station,-41.181261,174.835258,BP Grenada North Truckstop,50 Takapu Road (Diesel only),3,3,3,3,1,,,,
fuel_station,-41.182648,174.824225,Waitomo Outlet City Tawa,"26-28 Main Rd, Tawa",3,3,3,3,1,,,,
fuel_station,-41.22566147,174.8073621,BP Connect Johnsonville,117 Johnsonville Rd. Johnsonville,3,3,3,3,1,,,,
fuel_station,-41.22641416,174.8067887,Z Johnsonville,"136-140 Johnsonville Rd, Johnsonville",2,2,2,1,1,1,0,7,Priority fuel station. Fuel only available while stocks allow. Generator installed. 
fuel_station,-41.221981,174.807213,Mobil Johnsonville,"4 Johnsonville Rd, Johnsonville",3,3,3,3,1,,,,
fuel_station,-41.22967483,174.817354,BP 2go Newlands,101 Newlands Rd. Newlands,3,3,3,3,1,,,,
fuel_station,-41.218211,174.80725,Waitomo Johnsonville,2 Ohariu Rd,3,3,3,3,1,,,,
fuel_station,-41.25604444,174.7656808,Z Crofton Downs,"110 Churchill Dr, Crofton Downs",3,2,2,1,1,1,0,7,"Priority fuel station. Fuel only available while stocks allow.  No generator on-site, so fuel commences from when generator can be installed."
fuel_station,-41.255502,174.797898,Caltex Old Hutt Rd,"208 Old Hutt Rd, Kaiwharawhara",3,3,3,3,1,,,,
fuel_station,-41.266519,174.782565,Waitomo Tinakori,"24-26 Hutt Rd, Tinakori ",3,3,3,3,1,,,,
fuel_station,-41.28493705,174.7363491,BP 2Go Karori,276-280 Karori Rd. Karori,3,2,2,1,1,3,0,13,"Priority fuel station. Fuel only available while stocks allow. No generator on-site, so fuel commences from when generator can be installed."
fuel_station,-41.284654,174.73806,Mobil Karori,"245 Karori Rd, Karori",3,3,3,3,1,,,,
fuel_station,-41.29071662,174.7802313,BP Connect Roadmaster,"Taranaki St. & Wakefield St., Wellington",3,3,3,3,1,,,,
fuel_station,-41.30300753,174.7794901,BP Connect Adelaide Rd,44-55 Adelaide Rd. Newtown,3,3,3,3,1,,,,
fuel_station,-41.297083,174.7765331,Z Taranaki Street,"155 Taranaki St, Wellington",2,2,2,1,1,2,0,14,Priority fuel station. Fuel only available while stocks allow. Generator installed.
fuel_station,-41.31326794,174.7819206,Z Constable Street,"35-41 Constable St, Newtown",3,3,3,3,1,,,,
fuel_station,-41.29443298,174.7742554,Z Vivien St,"174 Vivien St, Wellington",3,3,3,3,1,,,,
fuel_station,-41.30652773,174.7632565,BP 2go Brooklyn,217 -219 Ohiro Rd. Brooklyn,3,3,2,1,1,2,0,10,"Priority fuel station. Fuel only available while stocks allow. No generator on-site, so fuel commences from when generator can be installed."
fuel_station,-41.31969389,174.7755638,BP 2go Berhampore,36 Luxford. St. Berhampore,3,3,3,3,1,,,,
fuel_station,-41.325767,174.810198,Z Wellington Airport,"Rongotai, Wellington",3,3,2,1,1,2,0,14,"Priority fuel station. Fuel only available while stocks allow. No generator on-site, so fuel commences from when generator can be installed."
fuel_station,-41.31759269,174.7954389,Mobil Kilbirnie,"1 Bay Road, Kilbirnie",3,3,3,3,1,,,,
fuel_station,-41.319387,174.795941,Pak n Save Kilbirnie Fuel,"25 Onepu Rd, Kilbirnie",3,3,3,3,1,,,,
fuel_station,-41.31999003,174.7943748,Z Kilbirnie,"16-22 Coutts St, Kilbirnie",3,3,3,3,1,,,,
fuel_station,-41.31508108,174.8138805,Z Miramar,"27 Miramar Ave, Miramar",3,3,3,3,1,,,,
fuel_station,-41.315199,174.8143,New World Miramar Fuel,"29-35 Miramar Ave, Miramar",3,3,3,3,1,,,,
fuel_station,-41.32544922,174.8101997,Z Broadway,"Cnr Calabar Rd and Broadway, Strathmore",3,3,3,3,1,,,,
fuel_station,-41.12353986,175.0757681,BP Connect Upper Hutt,963-967 Fergusson Dr. Upper Hutt,3,3,2,1,1,1,0,10/90,"Priority fuel station. Fuel only available while stocks allow. No generator on-site, so fuel commences from when generator can be installed."
fuel_station,-41.10895736,175.0974192,Caltex Rimutuka ,"1193 Fergusson Dr, Upper Hutt.",3,3,3,3,1,,,,
fuel_station,-41.124709,175.039538,Challenge Moonshine,"73-75 Moonshine Rd, Upper Hutt",3,3,3,3,1,,,,
fuel_station,-41.123168,175.066219,Pak n Save Upp Hutt Fuel,"3-19 Royal St, Upper Hutt",3,3,3,3,1,,,,
fuel_station,-41.146677,175.010041,Mobil Silverstream ,"170 Fergusson Drive, Silverstream",3,3,3,3,1,,,,
fuel_station,-41.137043,175.032575,Z Trentham,"430 Fergusson Dr, Upper Hutt",3,3,3,3,1,,,,
fuel_station,-41.16142957,174.981588,Caltex Stokes Valley,7 Stokes Valley Rd. Stokes Valley,3,3,3,3,1,,,,
fuel_station,-41.17867848,174.9610193,BP 2go Taita,1217 High St. Taita,3,3,2,1,1,1,0,10/90,"Priority fuel station. Fuel only available while stocks allow. No generator on-site, so fuel commences from when generator can be installed."
fuel_station,-41.22289794,174.9119541,BP Connect Waiwhetu,72-74 Whites Line Waiwhetu,3,3,3,3,1,,,,
fuel_station,-41.20452587,174.9115346,BP Connect Melling,17 Melling Rd. Lower Hutt,3,3,3,3,1,,,,
fuel_station,-41.2004513,174.9470857,Caltex Naenae,"Cnr Holland and Vogel St, Naenae",3,3,3,3,1,,,,
fuel_station,-41.20320916,174.9225944,Mobil Lower Hutt ,"657 High Street, Lower Hutt ",3,3,3,3,1,,,,
fuel_station,-41.204134,174.91432,Z Vic Corner,"545-555 High St, Lower Hutt",3,3,3,3,1,,,,
fuel_station,-41.205097,174.912628,Pak n Save Lower Hutt ,Cnr Brunswick & High St,3,3,3,3,1,,,,
fuel_station,-41.21419805,174.8871943,Z Hutt Road,"453 Hutt Rd, Lower Hutt",3,3,3,3,1,,,,
fuel_station,-41.197882,174.937385,Z High St,"834 High St, Boulcott, Lower Hutt",3,3,3,3,1,,,,
fuel_station,-41.22204408,174.8700969,Mobil Petone ,"3 Hutt Road, Petone ",3,3,2,1,1,2,0,21/90,"Priority fuel station. Fuel only available while stocks allow. No generator on-site, so fuel commences from when generator can be installed. "
fuel_station,-41.22272881,174.8687421,Z Petone,"Cnr Jackson St and Hutt Rd, Petone",3,3,3,3,1,,,,
fuel_station,-41.223465,174.873069,Pak n Save Petone Fuel,"59 Jackson St, Petone",3,3,3,3,1,,,,
fuel_station,-41.23224,174.837309,Hutt Rd unmanned OPT,"605 Hutt Road, Horokiwi, Wellington 5016",3,3,3,3,1,,,,
fuel_station,-41.2124,174.893738,BP 2go Railway Avenue,"32 Railway Avenue, Lower Hutt",3,3,3,3,1,,,,
fuel_station,-41.2625706,174.9462172,BP Connect Wainuiomata,1-3 Wainuiomata Rd.  Wainuiomata,3,3,3,3,1,,,,
fuel_station,-41.25985441,174.9429525,Caltex Wainuiomata ,"14 -16 The Strand, Wainuiomata",3,3,3,3,1,,,,
fuel_station,-41.242833,174.908627,Z Seaview diesel Stop,"58 Seaview Road, Seaview",3,3,3,3,1,,,,
fuel_station,-41.24642999,174.9097544,Mobil Seaview Fuel Depot ,"90 Seaview Road, Seaview ",3,3,3,3,1,,,,
fuel_station,-41.23612262,174.9061994,Z Hutt Park Seaview,"Cnr Seaview Rd and Parkside Rd, Seaview",3,3,3,3,1,,,,
fuel_station,-41.241256,174.908336,BP Seaview Truckstop,"48-56 Seaview Road, Lower Hutt",3,3,3,3,1,,,,
fuel_station,-41.275678,174.904899, Challenge Sunshine Bay,"519 Marine Dr, Eastbourne ",3,3,3,3,1,,,,
fuel_station,-40.952121,175.656349,BP 2go Masterton,"127 Chapel Street, Masterton",3,2,2,1,1,1,0,21,"Priority fuel station. Fuel only available while stocks allow. No generator on-site, so fuel commences from when generator can be installed."
fuel_station,-40.950426,175.658198,Z Masterton,"80 Chapel St, Masterton",3,2,2,1,1,,,,"PrioritNo generator on-site, so fuel commences from when generator can be installed.y fuel station. Fuel only available while stocks allow. "
fuel_station,-40.969121,175.601242,Z Masterton Truckstop,"SH2, Masterton ",3,3,3,3,1,,,,
fuel_station,-40.962705,175.614207,BP Masterton Truckstop,"307 High St, Masterton (Diesel only) ",3,3,3,3,1,,,,
fuel_station,-41.11690192,175.3230109,Mobil (Adamsons Service Station) Featherston,"32 Fitzherbert St, Featherston",3,3,3,3,1,,,,
fuel_station,-41.352457,175.205498,Mobil (APL Pirinoa Country Store),"Main Road, Pirirnoa, Wairarapa",3,3,3,3,1,,,,
fuel_station,-41.2169535,175.457929,BP 2go Martinborough,Kitchener St. Martinborough,3,2,2,1,1,,,,"Priority fuel station. Fuel only available while stocks allow. No generator on-site, so fuel commences from when generator can be installed."
fuel_station,-40.94690164,175.6633353,Caltex Chapel St ,"Cnr Wrigley and Chapel St, Masterton",3,3,3,3,1,,,,
fuel_station,-40.96200956,175.6244986,Caltex Solway ,"216 High St, Masterton",3,2,2,1,1,,,,"Priority fuel station. Fuel only available while stocks allow. No generator on-site, so fuel commences from when generator can be installed."
fuel_station,-41.02139524,175.5305147,"Mobil (Smith Hare & Christison), Carterton","191-201 High Street North, Carterton",3,3,3,3,1,,,,
fuel_station,-40.94542659,175.6691013,Mobil Faulknors ,"1 - 3 Queen Street North, Masterton",3,3,3,3,1,,,,
fuel_station,-40.9575822,175.6472739,Mobil Kuripuni - Masterton ,"229 - 231 Chapel Street, Masterton ",3,3,3,3,1,,,,
fuel_station,-40.94625373,175.6378351,Mobil Western Auto - Masterton ,"141 Ngaumutawa Road, Masterton ",3,3,3,3,1,,,,
fuel_station,-40.949504,175.664027,Challenge Masterton,"32 Dixon St, Masterton",3,3,3,3,1,,,,
fuel_station,-41.087042,175.452599,Challenge Greytown,"230 Main St, Greytown",3,3,3,3,1,,,,
fuel_station,-40.956981,175.64855,Pak n Save Masterton Fuel,"429 Queen St, Masterton",3,3,3,3,1,,,,
water,-41.29774,174.778498,,,3,1,1,1,1,,,,
water,-41.140569,174.866341,,,3,1,1,1,1,,,,
water,-41.12924069,174.8784955,,,3,1,1,1,1,,,,
water,-41.296175,174.784842,,,3,1,1,1,1,,,,
water,-41.29324603,174.7750544,,,3,1,1,1,1,,,,
water,-41.12932,175.043964,,,3,1,1,1,1,,,,
water,-41.111798,174.840138,,,3,1,1,1,1,,,,
water,-41.22128394,174.9197257,,,3,1,1,1,1,,,,
water,-41.144036,174.857509,,,3,1,1,1,1,,,,
water,-41.214776,174.923329,,,3,1,1,1,1,,,,
water,-41.12233,175.060015,,,3,1,1,1,1,,,,
water,-41.247765,174.798076,,,3,1,1,1,1,,,,
water,-41.101343,174.843283,,,3,1,1,1,1,,,,
water,-41.273974,174.779971,,,3,1,1,1,1,,,,
water,-41.114048,174.867576,,,3,1,1,1,1,,,,
water,-41.32170146,174.8015805,,,3,1,1,1,1,,,,
water,-41.111076,175.082686,,,3,1,1,1,1,,,,
water,-41.202052,174.935775,,,3,1,1,1,1,,,,
water,-41.12726904,174.8649956,,,3,1,1,1,1,,,,
water,-41.317971,174.817296,,,3,1,1,1,1,,,,
water,-41.12909569,175.0552976,,,3,1,1,1,1,,,,
water,-41.31730827,174.7807591,,,3,1,1,1,1,,,,
water,-41.117178,174.880849,,,3,1,1,1,1,,,,
water,-41.13957212,174.8488644,,,3,1,1,1,1,,,,
water,-41.311138,174.779971,,,3,1,1,1,1,,,,
water,-41.20872591,174.9519899,,,3,1,1,1,1,,,,
water,-41.21886831,174.9079592,,,3,1,1,1,1,,,,
water,-41.32409672,174.8161861,,,3,1,1,1,1,,,,
water,-41.209328,174.933747,,,3,1,1,1,1,,,,
water,-41.08858841,174.8754284,,,3,1,1,1,1,,,,
water,-41.28802144,174.7697481,,,3,1,1,1,1,,,,
water,-41.30856027,174.8160493,,,3,1,1,1,1,,,,
water,-41.110536,174.889129,,,3,1,1,1,1,,,,
water,-41.224447,174.82117,,,3,1,1,1,1,,,,
water,-41.22746157,174.8303505,,,3,1,1,1,1,,,,
water,-41.22926,174.904581,,,3,1,1,1,1,,,,
water,-41.20838,174.912654,,,3,1,1,1,1,,,,
water,-41.20659,174.9273056,,,3,1,1,1,1,,,,
water,-41.28339,174.772809,,,3,1,1,1,1,,,,
water,-41.220603,174.797267,,,3,1,1,1,1,,,,
water,-41.194754,174.944197,,,3,1,1,1,1,,,,
water,-41.181111,174.955181,,,3,1,1,1,1,,,,
water,-41.26327946,174.7766833,,,3,1,1,1,1,,,,
water,-41.113837,175.099068,,,3,1,1,1,1,,,,
water,-41.293927,174.768841,,,3,1,1,1,1,,,,
water,-41.21491195,174.9143314,,,3,1,1,1,1,,,,
water,-41.22653807,174.881799,,,3,1,1,1,1,,,,
water,-41.28822804,174.7442178,,,3,1,1,1,1,,,,
water,-41.118765,175.075327,,,3,1,1,1,1,,,,
water,-41.31818851,174.7924271,,,3,1,1,1,1,,,,
water,-41.23087817,174.8057261,,,3,1,1,1,1,,,,
water,-41.237554,174.949091,,,3,1,1,1,1,,,,
water,-41.24825877,174.9544096,,,3,1,1,1,1,,,,
water,-41.13238261,175.03266,,,3,1,1,1,1,,,,
water,-41.32419471,174.8242585,,,3,1,1,1,1,,,,
water,-41.320756,174.773343,,,3,1,1,1,1,,,,
water,-41.201301,174.921495,,,3,1,1,1,1,,,,
water,-41.21602851,174.8164636,,,3,1,1,1,1,,,,
water,-41.20087552,174.9628667,,,3,1,1,1,1,,,,
water,-41.252803,174.933431,,,3,1,1,1,1,,,,
water,-41.139348,175.031304,,,3,1,1,1,1,,,,
water,-41.27962695,174.7711183,,,3,1,1,1,1,,,,
water,-41.3301074,174.7914803,,,3,1,1,1,1,,,,
water,-41.23152978,174.818324,,,3,1,1,1,1,,,,
water,-41.21447633,174.8078981,,,3,1,1,1,1,,,,
water,-41.31319327,174.7746438,,,3,1,1,1,1,,,,
water,-41.180531,174.985028,,,3,1,1,1,1,,,,
water,-41.259764,174.95172,,,3,1,1,1,1,,,,
water,-41.11236122,174.9043011,,,3,1,1,1,1,,,,
water,-41.33442085,174.8174688,,,3,1,1,1,1,,,,
water,-41.16432339,174.8387174,,,3,1,1,1,1,,,,
water,-41.340151,174.7685899,,,3,1,1,1,1,,,,
water,-41.172573,174.988582,,,3,1,1,1,1,,,,
water,-41.223565,174.891272,,,3,1,1,1,1,,,,
water,-41.24195843,174.9443556,,,3,1,1,1,1,,,,
water,-41.128409,174.831997,,,3,1,1,1,1,,,,
water,-41.284921,174.737528,,,3,1,1,1,1,,,,
water,-41.1018423,175.0951934,,,3,1,1,1,1,,,,
water,-41.208548,174.80835,,,3,1,1,1,1,,,,
water,-41.212173,174.891669,,,3,1,1,1,1,,,,
water,-41.21854465,174.8881444,,,3,1,1,1,1,,,,
water,-41.26819155,174.9502587,,,3,1,1,1,1,,,,
water,-41.29196944,174.7891544,,,3,1,1,1,1,,,,
water,-41.32552009,174.7894103,,,3,1,1,1,1,,,,
water,-41.214172,174.798399,,,3,1,1,1,1,,,,
water,-41.199339,174.956385,,,3,1,1,1,1,,,,
water,-41.11649519,174.900592,,,3,1,1,1,1,,,,
water,-41.173352,174.825213,,,3,1,1,1,1,,,,
water,-41.24589411,174.7869168,,,3,1,1,1,1,,,,
water,-41.34260551,174.7634139,,,3,1,1,1,1,,,,
water,-41.335549,174.775358,,,3,1,1,1,1,,,,
water,-41.301294,174.89345,,,3,1,1,1,1,,,,
water,-41.27988841,174.7450574,,,3,1,1,1,1,,,,
water,-41.16048418,175.0140209,,,3,1,1,1,1,,,,
water,-41.3044215,174.7950103,,,3,1,1,1,1,,,,
water,-41.181274,174.821711,,,3,1,1,1,1,,,,
water,-41.157344,174.830391,,,3,1,1,1,1,,,,
water,-41.19311203,174.952273,,,3,1,1,1,1,,,,
water,-41.17626933,174.9606072,,,3,1,1,1,1,,,,
water,-41.253581,174.950066,,,3,1,1,1,1,,,,
water,-41.0733025,174.8586886,,,3,1,1,1,1,,,,
water,-41.312996,174.82706,,,3,1,1,1,1,,,,
water,-41.219356,174.80599,,,3,1,1,1,1,,,,
water,-41.25263061,174.791633,,,3,1,1,1,1,,,,
water,-41.24447909,174.7791344,,,3,1,1,1,1,,,,
water,-41.18915727,174.9524663,,,3,1,1,1,1,,,,
water,-41.28870251,174.7303664,,,3,1,1,1,1,,,,
water,-41.126241,175.064682,,,3,1,1,1,1,,,,
water,-41.14364682,175.0157088,,,3,1,1,1,1,,,,
water,-41.17477778,174.8144081,,,3,1,1,1,1,,,,
water,-41.21739118,174.8326437,,,3,1,1,1,1,,,,
water,-41.25324658,174.7777487,,,3,1,1,1,1,,,,
water,-41.32372723,174.7631351,,,3,1,1,1,1,,,,
water,-41.291597,174.897312,,,3,1,1,1,1,,,,
water,-41.224224,174.880275,,,3,1,1,1,1,,,,
water,-41.22946504,174.892656,,,3,1,1,1,1,,,,
water,-41.265404,174.935897,,,3,1,1,1,1,,,,
water,-41.29866647,174.800825,,,3,1,1,1,1,,,,
water,-41.16494051,174.8236696,,,3,1,1,1,1,,,,
water,-41.208642,174.821676,,,3,1,1,1,1,,,,
water,-41.18910375,174.9417298,,,3,1,1,1,1,,,,
water,-41.275041,174.955087,,,3,1,1,1,1,,,,
water,-41.103744,174.878592,,,3,1,1,1,1,,,,
water,-41.26615296,174.7670778,,,3,1,1,1,1,,,,
water,-41.308293,174.793344,,,3,1,1,1,1,,,,
water,-41.30647017,174.8243579,,,3,1,1,1,1,,,,
water,-41.330517,174.821995,,,3,1,1,1,1,,,,
water,-41.22442958,174.8053293,,,3,1,1,1,1,,,,
water,-41.249399,174.776275,,,3,1,1,1,1,,,,
water,-41.11158163,174.8260414,,,3,1,1,1,1,,,,
water,-41.289602,174.7643341,,,3,1,1,1,1,,,,
water,-41.18746659,174.9851394,,,3,1,1,1,1,,,,
water,-41.16903424,174.9831631,,,3,1,1,1,1,,,,
water,-41.31262553,174.793459,,,3,1,1,1,1,,,,
water,-41.31832934,174.8287108,,,3,1,1,1,1,,,,
water,-41.326478,174.837127,,,3,1,1,1,1,,,,
water,-41.160269,174.8244455,,,3,1,1,1,1,,,,
water,-41.23614168,174.7962081,,,3,1,1,1,1,,,,
water,-41.305888,174.766568,,,3,1,1,1,1,,,,
water,-41.172101,174.963498,,,3,1,1,1,1,,,,
water,-41.231779,174.915186,,,3,1,1,1,1,,,,
water,-41.28540536,174.7674225,,,3,1,1,1,1,,,,
water,-41.290216,174.722372,,,3,1,1,1,1,,,,
water,-41.27126668,174.7597813,,,3,1,1,1,1,,,,
water,-41.14878356,175.0214952,,,3,1,1,1,1,,,,
water,-41.30319247,174.801969,,,3,1,1,1,1,,,,
water,-41.20197843,174.8000036,,,3,1,1,1,1,,,,
water,-41.33299446,174.7710226,,,3,1,1,1,1,,,,
water,-41.204465,174.945774,,,3,1,1,1,1,,,,
water,-41.19975175,174.9493031,,,3,1,1,1,1,,,,
water,-41.17267133,174.9750363,,,3,1,1,1,1,,,,
water,-41.035328,174.885064,,,3,1,1,1,1,,,,
water,-41.29103778,174.7373349,,,3,1,1,1,1,,,,
water,-41.29148329,174.7931985,,,3,1,1,1,1,,,,
water,-41.30054266,174.7948343,,,3,1,1,1,1,,,,
water,-41.15381837,174.8387876,,,3,1,1,1,1,,,,
water,-41.21983564,174.8131097,,,3,1,1,1,1,,,,
water,-41.30947843,174.7654094,,,3,1,1,1,1,,,,
water,-41.106842,174.911356,,,3,1,1,1,1,,,,
water,-41.28326917,174.7570752,,,3,1,1,1,1,,,,
water,-41.28164179,174.7501408,,,3,1,1,1,1,,,,
water,-41.28435455,174.7307914,,,3,1,1,1,1,,,,
water,-41.261681,174.772962,,,3,1,1,1,1,,,,
water,-41.148147,175.01255,,,3,1,1,1,1,,,,
water,-41.259743,174.764001,,,3,1,1,1,1,,,,
water,-41.30197111,174.7629382,,,3,1,1,1,1,,,,
water,-41.34528509,174.7698606,,,3,1,1,1,1,,,,
water,-41.16167127,174.9825526,,,3,1,1,1,1,,,,
water,-41.25864213,174.9293377,,,3,1,1,1,1,,,,
water,-41.280463,174.759765,,,3,1,1,1,1,,,,
water,-41.10287163,175.1098706,,,3,1,1,1,1,,,,
water,-41.334194,174.78761,,,3,1,1,1,1,,,,
water,-41.178846,174.822809,,,3,1,1,1,1,,,,
water,-41.33813364,174.7786914,,,3,1,1,1,1,,,,
water,-41.32686831,174.7743881,,,3,1,1,1,1,,,,
water,-41.180414,174.933028,,,3,1,1,1,1,,,,
water,-41.20369163,174.8828595,,,3,1,1,1,1,,,,
water,-41.283602,174.949974,,,3,1,1,1,1,,,,
water,-41.29401356,174.7531842,,,3,1,1,1,1,,,,
water,-41.286987,174.762153,,,3,1,1,1,1,,,,
water,-41.15662238,175.0165622,,,3,1,1,1,1,,,,
water,-41.29175369,174.8004658,,,3,1,1,1,1,,,,
water,-41.30878382,174.8285408,,,3,1,1,1,1,,,,
water,-41.24356757,174.7699916,,,3,1,1,1,1,,,,
water,-41.30889977,174.7583069,,,3,1,1,1,1,,,,
water,-41.219744,174.880902,,,3,1,1,1,1,,,,
water,-41.274512,174.964163,,,3,1,1,1,1,,,,
water,-41.28785974,174.7185366,,,3,1,1,1,1,,,,
water,-41.124148,175.068845,,,3,1,1,1,1,,,,
water,-41.16827654,174.819541,,,3,1,1,1,1,,,,
water,-41.24991565,174.7675099,,,3,1,1,1,1,,,,
water,-41.31785633,174.7638642,,,3,1,1,1,1,,,,
water,-41.117879,174.859616,,,3,1,1,1,1,,,,
water,-41.28006702,174.7308208,,,3,1,1,1,1,,,,
water,-41.27758908,174.7610641,,,3,1,1,1,1,,,,
water,-41.33469022,174.7820217,,,3,1,1,1,1,,,,
water,-41.20297635,174.8085972,,,3,1,1,1,1,,,,
water,-41.31344632,174.7642447,,,3,1,1,1,1,,,,
water,-41.20478383,174.8935503,,,3,1,1,1,1,,,,
water,-41.200359,174.887459,,,3,1,1,1,1,,,,
water,-41.080766,174.865683,,,3,1,1,1,1,,,,
water,-41.1068,174.886443,,,3,1,1,1,1,,,,
water,-41.28852917,174.7572138,,,3,1,1,1,1,,,,
water,-41.322236,174.7878605,,,3,1,1,1,1,,,,
water,-41.220449,174.790888,,,3,1,1,1,1,,,,
water,-41.2477348,174.7696604,,,3,1,1,1,1,,,,
water,-41.11568845,175.039025,,,3,1,1,1,1,,,,
water,-41.16819086,174.9647299,,,3,1,1,1,1,,,,
water,-41.15717316,174.9887881,,,3,1,1,1,1,,,,
water,-41.16455089,174.9781157,,,3,1,1,1,1,,,,
water,-41.0974,174.8681,,,3,1,1,1,1,,,,
water,-41.29036834,174.7581086,,,3,1,1,1,1,,,,
water,-41.09669559,175.1097239,,,3,1,1,1,1,,,,
water,-41.1529625,175.0055962,,,3,1,1,1,1,,,,
water,-41.30042865,174.8291488,,,3,1,1,1,1,,,,
water,-41.19040224,174.9830369,,,3,1,1,1,1,,,,
water,-41.21535495,174.9017416,,,3,1,1,1,1,,,,
water,-41.19741557,174.9009378,,,3,1,1,1,1,,,,
water,-41.20675783,174.8723284,,,3,1,1,1,1,,,,
water,-41.209768,174.878797,,,3,1,1,1,1,,,,
water,-41.21450343,174.8740065,,,3,1,1,1,1,,,,
water,-41.21233282,174.8849331,,,3,1,1,1,1,,,,
water,-41.17129059,174.9402573,,,3,1,1,1,1,,,,
water,-41.28426856,174.7241383,,,3,1,1,1,1,,,,
water,-41.26764067,174.7590502,,,3,1,1,1,1,,,,
water,-41.191347,174.927728,,,3,1,1,1,1,,,,
water,-41.203749,174.898626,,,3,1,1,1,1,,,,
water,-41.037831,174.891769,,,3,1,1,1,1,,,,
water,-41.29499245,174.725133,,,3,1,1,1,1,,,,
water,-41.28001223,174.7539387,,,3,1,1,1,1,,,,
water,-41.33590419,174.762541,,,3,1,1,1,1,,,,
water,-41.19935956,174.9070812,,,3,1,1,1,1,,,,
water,-41.194647,174.917356,,,3,1,1,1,1,,,,
water,-41.19174553,174.9141074,,,3,1,1,1,1,,,,
water,-41.187775,174.919498,,,3,1,1,1,1,,,,
water,-41.21158982,174.8795939,,,3,1,1,1,1,,,,
water,-41.20399071,174.88688,,,3,1,1,1,1,,,,
water,-41.03244615,174.8954037,,,3,1,1,1,1,,,,
water,-41.2737005,174.7625607,,,3,1,1,1,1,,,,
water,-41.34298566,174.7789226,,,3,1,1,1,1,,,,
water,-41.31099207,174.7623358,,,3,1,1,1,1,,,,
water,-41.31561751,174.7587514,,,3,1,1,1,1,,,,
water,-41.211906,174.903816,,,3,1,1,1,1,,,,
water,-41.088298,175.098906,,,3,1,1,1,1,,,,
water,-41.18895176,174.9242514,,,3,1,1,1,1,,,,
water,-41.093717,175.132805,,,3,1,1,1,1,,,,
water,-41.14584842,174.8298687,,,3,1,1,1,1,,,,
water,-41.256888,174.914596,,,3,1,1,1,1,,,,
water,-41.10982376,175.0419184,,,3,1,1,1,1,,,,
water,-41.287017,174.803258,,,3,1,1,1,1,,,,
water,-41.34173004,174.7850197,,,3,1,1,1,1,,,,
water,-41.18923826,174.8341911,,,3,1,1,1,1,,,,
water,-41.251218,174.91164,,,3,1,1,1,1,,,,
water,-41.262977,174.910931,,,3,1,1,1,1,,,,
water,-41.195624,174.906869,,,3,1,1,1,1,,,,
water,-41.215826,174.867089,,,3,1,1,1,1,,,,
water,-41.09647729,175.1419152,,,3,1,1,1,1,,,,
water,-41.092009,175.10013,,,3,1,1,1,1,,,,
water,-41.19955788,174.8303593,,,3,1,1,1,1,,,,
water,-41.19829942,174.8023471,,,3,1,1,1,1,,,,
water,-41.270549,174.909661,,,3,1,1,1,1,,,,
water,-41.15920982,174.9769393,,,3,1,1,1,1,,,,
water,-41.183087,174.914907,,,3,1,1,1,1,,,,
water,-41.25900308,174.7882513,,,3,1,1,1,1,,,,
water,-41.113304,175.126158,,,3,1,1,1,1,,,,
water,-41.22019462,174.8646027,,,3,1,1,1,1,,,,
water,-41.277919,174.906049,,,3,1,1,1,1,,,,
water,-41.15399349,174.9793225,,,3,1,1,1,1,,,,
water,-41.21178162,174.8666246,,,3,1,1,1,1,,,,
water,-41.12529471,174.8525165,,,3,1,1,1,1,,,,
EM_hubs,-41.1826418,174.9139136,,,1,1,1,1,1,,,,
EM_hubs,-41.25461397,174.9362419,,,1,1,1,1,1,,,,
EM_hubs,-41.24195951,174.9442951,,,1,1,1,1,1,,,,
EM_hubs,-41.19473105,174.9440621,,,1,1,1,1,1,,,,
EM_hubs,-41.19103388,174.9281667,,,1,1,1,1,1,,,,
EM_hubs,-41.20138101,174.9217785,,,1,1,1,1,1,,,,
EM_hubs,-41.20212114,174.9362775,,,1,1,1,1,1,,,,
EM_hubs,-41.20838686,174.9120833,,,1,1,1,1,1,,,,
EM_hubs,-41.20925816,174.9333738,,,1,1,1,1,1,,,,
EM_hubs,-41.26409735,174.9379048,,,1,1,1,1,1,,,,
EM_hubs,-41.2540309,174.9495201,,,1,1,1,1,1,,,,
EM_hubs,-41.23166528,174.9156207,,,1,1,1,1,1,,,,
EM_hubs,-41.21250683,174.8915684,,,1,1,1,1,1,,,,
EM_hubs,-41.18063828,174.9331208,,,1,1,1,1,1,,,,
EM_hubs,-41.21581155,174.867211,,,1,1,1,1,1,,,,
EM_hubs,-41.29200105,174.8970604,,,1,1,1,1,1,,,,
EM_hubs,-41.20417306,174.9460453,,,1,1,1,1,1,,,,
EM_hubs,-41.22408484,174.8802569,,,1,1,1,1,1,,,,
EM_hubs,-41.17211895,174.963542,,,1,1,1,1,1,,,,
EM_hubs,-41.20962713,174.8781399,,,1,1,1,1,1,,,,
EM_hubs,-41.22932459,174.9046365,,,1,1,1,1,1,,,,
EM_hubs,-41.19938476,174.9565294,,,1,1,1,1,1,,,,
EM_hubs,-41.18093137,174.9553513,,,1,1,1,1,1,,,,
EM_hubs,-41.1726526,174.9882089,,,1,1,1,1,1,,,,
EM_hubs,-41.16949574,174.983215,,,1,1,1,1,1,,,,
EM_hubs,-41.27534345,174.955785,,,1,1,1,1,1,,,,
EM_hubs,-41.21538862,174.9243807,,,1,1,1,1,1,,,,
EM_hubs,-41.22341878,174.8907357,,,1,1,1,1,1,,,,
EM_hubs,-41.27853016,174.9072869,,,1,1,1,1,1,,,,
EM_hubs,-41.18070745,174.9843858,,,1,1,1,1,1,,,,
EM_hubs,-41.25161667,174.910931,,,1,1,1,1,1,,,,
EM_hubs,-41.35449732,174.9123333,,,1,1,1,1,1,,,,
EM_hubs,-41.23636463,174.9796537,,,1,1,1,1,1,,,,
EM_hubs,-41.09264288,175.0998174,,,1,1,1,1,1,,,,
EM_hubs,-41.12154165,175.0610578,,,1,1,1,1,1,,,,
EM_hubs,-41.12306192,175.1160762,,,1,1,1,1,1,,,,
EM_hubs,-41.11340253,175.0994513,,,1,1,1,1,1,,,,
EM_hubs,-41.11898522,175.0750804,,,1,1,1,1,1,,,,
EM_hubs,-41.16082761,175.0152172,,,1,1,1,1,1,,,,
EM_hubs,-41.0936039,175.1329708,,,1,1,1,1,1,,,,
EM_hubs,-41.14812698,175.0126617,,,1,1,1,1,1,,,,
EM_hubs,-41.13925379,175.0318,,,1,1,1,1,1,,,,
EM_hubs,-41.12346228,175.0685146,,,1,1,1,1,1,,,,
EM_hubs,-41.11098771,175.082547,,,1,1,1,1,1,,,,
EM_hubs,-41.12884966,175.0446318,,,1,1,1,1,1,,,,
EM_hubs,-41.12641982,175.0648071,,,1,1,1,1,1,,,,
EM_hubs,-40.96233317,175.6448316,,,1,1,1,1,1,,,,
EM_hubs,-40.95557547,175.6539262,,,1,1,1,1,1,,,,
EM_hubs,-40.93382337,175.615743,,,1,1,1,1,1,,,,
EM_hubs,-40.77521915,175.7021013,,,1,1,1,1,1,,,,
EM_hubs,-41.09234428,176.069882,,,1,1,1,1,1,,,,
EM_hubs,-40.89872462,176.220963,,,1,1,1,1,1,,,,
EM_hubs,-40.87812504,176.0722391,,,1,1,1,1,1,,,,
EM_hubs,-41.03654359,175.809288,,,1,1,1,1,1,,,,
EM_hubs,-40.96736528,175.8016951,,,1,1,1,1,1,,,,
EM_hubs,-40.86703362,175.8620787,,,1,1,1,1,1,,,,
EM_hubs,-41.02516199,175.5281276,,,1,1,1,1,1,,,,
EM_hubs,-41.0807569,175.2057347,,,1,1,1,1,1,,,,
EM_hubs,-40.98682944,175.1229095,,,1,1,1,1,1,,,,
EM_hubs,-41.19885,174.7810562,,,1,1,1,1,1,,,,
EM_hubs,-41.33046871,174.8220009,,,1,1,1,1,1,,,,
EM_hubs,-41.31795378,174.8172662,,,1,1,1,1,1,,,,
EM_hubs,-41.20868313,174.8217485,,,1,1,1,1,1,,,,
EM_hubs,-41.31308231,174.826676,,,1,1,1,1,1,,,,
EM_hubs,-41.26273902,174.767833,,,1,1,1,1,1,,,,
EM_hubs,-41.27385106,174.7809047,,,1,1,1,1,1,,,,
EM_hubs,-41.29333157,174.7692026,,,1,1,1,1,1,,,,
EM_hubs,-41.17314774,174.8258946,,,1,1,1,1,1,,,,
EM_hubs,-41.32647873,174.8366893,,,1,1,1,1,1,,,,
EM_hubs,-41.28746835,174.8024909,,,1,1,1,1,1,,,,
EM_hubs,-41.18209151,174.8218976,,,1,1,1,1,1,,,,
EM_hubs,-41.28065211,174.7602184,,,1,1,1,1,1,,,,
EM_hubs,-41.2492815,174.7761722,,,1,1,1,1,1,,,,
EM_hubs,-41.31101415,174.7796036,,,1,1,1,1,1,,,,
EM_hubs,-41.2249217,174.8205859,,,1,1,1,1,1,,,,
EM_hubs,-41.26649777,174.7088469,,,1,1,1,1,1,,,,
EM_hubs,-41.15734612,174.8309339,,,1,1,1,1,1,,,,
EM_hubs,-41.30863509,174.7937054,,,1,1,1,1,1,,,,
EM_hubs,-41.28727721,174.761649,,,1,1,1,1,1,,,,
EM_hubs,-41.2246913,174.7972936,,,1,1,1,1,1,,,,
EM_hubs,-41.21932071,174.8055569,,,1,1,1,1,1,,,,
EM_hubs,-41.33566428,174.7749403,,,1,1,1,1,1,,,,
EM_hubs,-41.29811458,174.8007279,,,1,1,1,1,1,,,,
EM_hubs,-41.16432418,174.8387731,,,1,1,1,1,1,,,,
EM_hubs,-41.29626615,174.7851525,,,1,1,1,1,1,,,,
EM_hubs,-41.28322983,174.7730867,,,1,1,1,1,1,,,,
EM_hubs,-41.20847002,174.8082777,,,1,1,1,1,1,,,,
EM_hubs,-41.24778864,174.798197,,,1,1,1,1,1,,,,
EM_hubs,-41.30617179,174.7664539,,,1,1,1,1,1,,,,
EM_hubs,-41.32090848,174.773703,,,1,1,1,1,1,,,,
EM_hubs,-41.11067359,174.8896664,,,1,1,1,1,1,,,,
EM_hubs,-41.07918799,174.8659259,,,1,1,1,1,1,,,,
EM_hubs,-41.03596192,174.8853703,,,1,1,1,1,1,,,,
EM_hubs,-41.10492933,174.917044,,,1,1,1,1,1,,,,
EM_hubs,-41.11380754,174.8673246,,,1,1,1,1,1,,,,
EM_hubs,-41.12199289,174.8811456,,,1,1,1,1,1,,,,
EM_hubs,-40.96092569,175.6679608,,,1,1,1,1,1,,,,
EM_hubs,-41.11654083,175.0387513,,,1,1,1,1,1,,,,
EM_hubs,-41.09653779,174.9913524,,,1,1,1,1,1,,,,
EM_hubs,-41.11654083,175.0387513,,,1,1,1,1,1,,,,
EM_hubs,-41.09653779,174.9913524,,,1,1,1,1,1,,,,
EM_hubs,-41.17379482,175.0315824,,,1,1,1,1,1,,,,
EM_hubs,-41.14017969,174.865546,,,1,1,1,1,1,,,,
EM_hubs,-41.25995398,174.763704,,,1,1,1,1,1,,,,
EM_hubs,-41.11573711,175.3288053,,,1,1,1,1,1,,,,
EM_hubs,-41.08007036,175.4609828,,,1,1,1,1,1,,,,
EM_hubs,-41.33414463,174.7874322,,,1,1,1,1,1,,,,
EM_hubs,-40.91400932,175.0024996,,,1,1,1,1,1,,,,
EM_hubs,-41.2850792,174.737506,,,1,1,1,1,1,,,,
EM_hubs,-41.28932898,174.7221875,,,1,1,1,1,1,,,,
EM_hubs,-41.21923649,175.460483,,,1,1,1,1,1,,,,
EM_hubs,-41.29766981,174.7786535,,,1,1,1,1,1,,,,
EM_hubs,-41.20216579,174.8859176,,,1,1,1,1,1,,,,
EM_hubs,-40.7529075,175.1398403,,,1,1,1,1,1,,,,
EM_hubs,-40.98173033,174.9571055,,,1,1,1,1,1,,,,
EM_hubs,-40.93314853,174.9844784,,,1,1,1,1,1,,,,
EM_hubs,-41.19614913,174.9077775,,,1,1,1,1,1,,,,
EM_hubs,-40.90110366,174.9921812,,,1,1,1,1,1,,,,
EM_hubs,-40.80639348,175.1236718,,,1,1,1,1,1,,,,
EM_hubs,-41.11142176,174.8394455,,,1,1,1,1,1,,,,
EM_hubs,-40.91938751,174.9847985,,,1,1,1,1,1,,,,
EM_hubs,-40.87695138,175.0667256,,,1,1,1,1,1,,,,
EM_hubs,-41.26180148,174.9452807,,,1,1,1,1,1,,,,
EM_hubs,-40.95746192,176.0341972,,,1,1,1,1,1,,,,
health_services,-41.29857072,174.7834097,,,1,1,1,1,1,,,,
health_services,-41.2871349,174.7623311,,,1,1,1,1,1,,,,
health_services,-41.14460053,174.8414353,,,1,1,1,1,1,,,,
health_services,-40.87516029,175.0639753,,,1,1,1,1,1,,,,
health_services,-41.22180421,174.8062305,,,1,1,1,1,1,,,,
health_services,-41.28405591,174.7368212,,,1,1,1,1,1,,,,
health_services,-41.22329797,174.8216126,,,1,1,1,1,1,,,,
health_services,-41.21939819,175.4606382,,,1,1,1,1,1,,,,
health_services,-41.28346028,174.7572399,,,1,1,1,1,1,,,,
health_services,-40.6290136,175.305334,,,1,1,1,1,1,,,,
health_services,-40.94941534,175.6747221,,,1,1,1,1,1,,,,
health_services,-40.87562171,175.0654673,,,1,1,1,1,1,,,,
health_services,-41.22409017,174.9214937,,,1,1,1,1,1,,,,
health_services,-40.87609364,175.0634029,,,1,1,1,1,1,,,,
health_services,-41.08253573,174.8658452,,,1,1,1,1,1,,,,
health_services,-40.62114327,175.2891922,,,1,1,1,1,1,,,,
health_services,-41.30483997,174.7635936,,,1,1,1,1,1,,,,
health_services,-41.31144285,174.7780297,,,1,1,1,1,1,,,,
health_services,-41.29504288,174.7810032,,,1,1,1,1,1,,,,
health_services,-41.1415692,174.8656095,,,1,1,1,1,1,,,,
health_services,-41.2876595,174.7655351,,,1,1,1,1,1,,,,
health_services,-41.22942139,174.8007341,,,1,1,1,1,1,,,,
health_services,-40.89637181,174.9832938,,,1,1,1,1,1,,,,
health_services,-41.14685942,174.8355751,,,1,1,1,1,1,,,,
health_services,-41.30916816,174.7801346,,,1,1,1,1,1,,,,
health_services,-40.94863214,175.6749591,,,1,1,1,1,1,,,,
health_services,-41.20381728,174.9264976,,,1,1,1,1,1,,,,
health_services,-41.20457171,174.9244911,,,1,1,1,1,1,,,,
health_services,-40.91015817,175.0073448,,,1,1,1,1,1,,,,
health_services,-41.30941609,174.7755409,,,1,1,1,1,1,,,,
health_services,-41.31710231,174.7790685,,,1,1,1,1,1,,,,
health_services,-40.63399766,175.2872628,,,1,1,1,1,1,,,,
health_services,-41.14339208,174.841522,,,1,1,1,1,1,,,,
health_services,-41.14076,174.8323354,,,1,1,1,1,1,,,,
health_services,-41.2592711,174.7669317,,,1,1,1,1,1,,,,
health_services,-41.3019041,174.7798775,,,1,1,1,1,1,,,,
health_services,-41.1170445,174.892939,,,1,1,1,1,1,,,,
health_services,-41.1162783,175.3241611,,,1,1,1,1,1,,,,
health_services,-41.2473979,174.7748244,,,1,1,1,1,1,,,,
health_services,-41.2884999,174.7695415,,,1,1,1,1,1,,,,
health_services,-41.1219274,175.0732564,,,1,1,1,1,1,,,,
health_services,-41.3186527,174.7752028,,,1,1,1,1,1,,,,
health_services,-41.2947291,174.774019,,,1,1,1,1,1,,,,
health_services,-41.1253116,175.0583282,,,1,1,1,1,1,,,,
health_services,-41.2889,174.7617815,,,1,1,1,1,1,,,,
health_services,-41.2904794,174.8985883,,,1,1,1,1,1,,,,
health_services,-41.1226374,175.0738984,,,1,1,1,1,1,,,,
health_services,-41.1583012,174.8329482,,,1,1,1,1,1,,,,
health_services,-41.2858259,174.7676474,,,1,1,1,1,1,,,,
health_services,-41.3195533,174.7973369,,,1,1,1,1,1,,,,
health_services,-41.1695357,174.8246026,,,1,1,1,1,1,,,,
health_services,-41.1472,174.835,,,1,1,1,1,1,,,,
health_services,-41.1411849,174.8298475,,,1,1,1,1,1,,,,
health_services,-40.9106939,175.0066117,,,1,1,1,1,1,,,,
